*******************************************************************************
Ephemeris / WWW_USER Fri Mar  7 10:34:35 2025 Pasadena, USA      / Horizons    
*******************************************************************************
Target body name: (2017 SN16)                     {source: JPL#20}
Center body name: Earth (399)                     {source: DE441}
Center-site name: Mauna Kea
*******************************************************************************
Start time      : A.D. 2018-Nov-15 03:52:00.0000 UT      
Stop  time      : A.D. 2018-Nov-15 16:20:00.0000 UT      
Step-size       : 1 minutes
*******************************************************************************
Target pole/equ : undefined
Target radii    : undefined                                                    
Center geodetic : 204.5278, 19.8260847, 4.21024   {E-lon(deg),Lat(deg),Alt(km)}
Center cylindric: 204.5278, 6006.35451, 2151.0229 {E-lon(deg),Dxy(km),Dz(km)}
Center pole/equ : ITRF93                          {East-longitude positive}
Center radii    : 6378.137, 6378.137, 6356.752 km {Equator_a, b, pole_c}       
Target primary  : Sun
Vis. interferer : MOON (R_eq= 1737.400) km        {source: DE441}
Rel. light bend : Sun                             {source: DE441}
Rel. lght bnd GM: 1.3271E+11 km^3/s^2                                          
Small-body perts: Yes                             {source: SB441-N16}
Atmos refraction: NO (AIRLESS)
RA format       : HMS
Time format     : CAL 
Calendar mode   : Mixed Julian/Gregorian
RTS-only print  : NO       
EOP file        : eop.250306.p250602                                           
EOP coverage    : DATA-BASED 1962-JAN-20 TO 2025-MAR-06. PREDICTS-> 2025-JUN-01
Units conversion: 1 au= 149597870.700 km, c= 299792.458 km/s, 1 day= 86400.0 s 
Table cut-offs 1: Elevation (-90.0deg=NO ),Airmass (>38.000=NO), Daylight (YES)
Table cut-offs 2: Solar elongation (  0.0,180.0=NO ),Local Hour Angle( 0.0=NO )
Table cut-offs 3: RA/DEC angular rate (     0.0=NO )                           
*******************************************************************************
Initial IAU76/J2000 heliocentric ecliptic osculating elements (au, days, deg.):
  EPOCH=  2458305.5 ! 2018-Jul-06.00 (TDB)         Residual RMS= .23751        
   EC= .1454884975659386   QR= .8682464985612274   TP= 2458145.5722438502      
   OM= 2.759719470837934   W=  137.1017088998531   IN= 13.38264682844635       
  Equivalent ICRF heliocentric cartesian coordinates (au, au/d):
   X= 5.756755401261899E-01  Y=-7.953424559592890E-01  Z=-6.031561894536019E-01
  VX= 1.332076113263395E-02 VY= 5.454663564585547E-03 VZ= 3.896229736425836E-03
Asteroid physical parameters (km, seconds, rotational period in hours):        
   GM= n.a.                RAD= n.a.               ROTPER= n.a.                
   H= 23.34                G= .150                 B-V= n.a.                   
                           ALBEDO= n.a.            STYP= n.a.                  
*******************************************************************************
 Date__(UT)__HR:MN     R.A._________(ICRF)_________DEC
******************************************************
$$SOE
 2018-Nov-15 12:04     20 33 40.473918 +27 57 25.55854
 2018-Nov-15 12:05     20 33 40.454759 +27 57 26.43288
 2018-Nov-15 12:06     20 33 40.435641 +27 57 27.30743
 2018-Nov-15 12:07     20 33 40.416564 +27 57 28.18220
 2018-Nov-15 12:08     20 33 40.397528 +27 57 29.05718
 2018-Nov-15 12:09     20 33 40.378533 +27 57 29.93238
 2018-Nov-15 12:10     20 33 40.359579 +27 57 30.80780
 2018-Nov-15 12:11     20 33 40.340664 +27 57 31.68344
 2018-Nov-15 12:12     20 33 40.321791 +27 57 32.55930
 2018-Nov-15 12:13     20 33 40.302957 +27 57 33.43538
 2018-Nov-15 12:14     20 33 40.284163 +27 57 34.31169
 2018-Nov-15 12:15     20 33 40.265409 +27 57 35.18822
 2018-Nov-15 12:16     20 33 40.246694 +27 57 36.06498
 2018-Nov-15 12:17     20 33 40.228019 +27 57 36.94196
 2018-Nov-15 12:18     20 33 40.209383 +27 57 37.81917
 2018-Nov-15 12:19     20 33 40.190787 +27 57 38.69661
 2018-Nov-15 12:20     20 33 40.172229 +27 57 39.57428
 2018-Nov-15 12:21     20 33 40.153710 +27 57 40.45218
 2018-Nov-15 12:22     20 33 40.135230 +27 57 41.33031
 2018-Nov-15 12:23     20 33 40.116788 +27 57 42.20867
 2018-Nov-15 12:24     20 33 40.098384 +27 57 43.08727
 2018-Nov-15 12:25     20 33 40.080018 +27 57 43.96610
 2018-Nov-15 12:26     20 33 40.061690 +27 57 44.84517
 2018-Nov-15 12:27     20 33 40.043400 +27 57 45.72448
 2018-Nov-15 12:28     20 33 40.025148 +27 57 46.60402
 2018-Nov-15 12:29     20 33 40.006933 +27 57 47.48380
 2018-Nov-15 12:30     20 33 39.988755 +27 57 48.36382
 2018-Nov-15 12:31     20 33 39.970614 +27 57 49.24409
 2018-Nov-15 12:32     20 33 39.952510 +27 57 50.12459
 2018-Nov-15 12:33     20 33 39.934443 +27 57 51.00534
 2018-Nov-15 12:34     20 33 39.916412 +27 57 51.88633
 2018-Nov-15 12:35     20 33 39.898418 +27 57 52.76756
 2018-Nov-15 12:36     20 33 39.880459 +27 57 53.64905
 2018-Nov-15 12:37     20 33 39.862537 +27 57 54.53078
 2018-Nov-15 12:38     20 33 39.844650 +27 57 55.41275
 2018-Nov-15 12:39     20 33 39.826799 +27 57 56.29498
 2018-Nov-15 12:40     20 33 39.808984 +27 57 57.17745
 2018-Nov-15 12:41     20 33 39.791203 +27 57 58.06018
 2018-Nov-15 12:42     20 33 39.773458 +27 57 58.94315
 2018-Nov-15 12:43     20 33 39.755748 +27 57 59.82638
 2018-Nov-15 12:44     20 33 39.738072 +27 58 00.70987
 2018-Nov-15 12:45     20 33 39.720431 +27 58 01.59360
 2018-Nov-15 12:46     20 33 39.702823 +27 58 02.47760
 2018-Nov-15 12:47     20 33 39.685251 +27 58 03.36184
 2018-Nov-15 12:48     20 33 39.667712 +27 58 04.24635
 2018-Nov-15 12:49     20 33 39.650206 +27 58 05.13111
 2018-Nov-15 12:50     20 33 39.632735 +27 58 06.01614
 2018-Nov-15 12:51     20 33 39.615296 +27 58 06.90142
 2018-Nov-15 12:52     20 33 39.597891 +27 58 07.78696
 2018-Nov-15 12:53     20 33 39.580519 +27 58 08.67277
 2018-Nov-15 12:54     20 33 39.563180 +27 58 09.55883
 2018-Nov-15 12:55     20 33 39.545873 +27 58 10.44516
 2018-Nov-15 12:56     20 33 39.528599 +27 58 11.33176
 2018-Nov-15 12:57     20 33 39.511356 +27 58 12.21862
 2018-Nov-15 12:58     20 33 39.494146 +27 58 13.10574
 2018-Nov-15 12:59     20 33 39.476968 +27 58 13.99314
 2018-Nov-15 13:00     20 33 39.459821 +27 58 14.88080
 2018-Nov-15 13:01     20 33 39.442706 +27 58 15.76873
 2018-Nov-15 13:02     20 33 39.425622 +27 58 16.65692
 2018-Nov-15 13:03     20 33 39.408569 +27 58 17.54539
 2018-Nov-15 13:04     20 33 39.391547 +27 58 18.43413
 2018-Nov-15 13:05     20 33 39.374555 +27 58 19.32314
 2018-Nov-15 13:06     20 33 39.357594 +27 58 20.21243
 2018-Nov-15 13:07     20 33 39.340663 +27 58 21.10198
 2018-Nov-15 13:08     20 33 39.323762 +27 58 21.99181
 2018-Nov-15 13:09     20 33 39.306891 +27 58 22.88192
 2018-Nov-15 13:10     20 33 39.290050 +27 58 23.77230
 2018-Nov-15 13:11     20 33 39.273238 +27 58 24.66296
 2018-Nov-15 13:12     20 33 39.256455 +27 58 25.55390
 2018-Nov-15 13:13     20 33 39.239702 +27 58 26.44511
 2018-Nov-15 13:14     20 33 39.222977 +27 58 27.33661
 2018-Nov-15 13:15     20 33 39.206281 +27 58 28.22838
 2018-Nov-15 13:16     20 33 39.189613 +27 58 29.12043
 2018-Nov-15 13:17     20 33 39.172974 +27 58 30.01277
 2018-Nov-15 13:18     20 33 39.156362 +27 58 30.90539
 2018-Nov-15 13:19     20 33 39.139778 +27 58 31.79829
 2018-Nov-15 13:20     20 33 39.123222 +27 58 32.69147
 2018-Nov-15 13:21     20 33 39.106694 +27 58 33.58494
 2018-Nov-15 13:22     20 33 39.090192 +27 58 34.47869
 2018-Nov-15 13:23     20 33 39.073718 +27 58 35.37273
 2018-Nov-15 13:24     20 33 39.057270 +27 58 36.26706
 2018-Nov-15 13:25     20 33 39.040849 +27 58 37.16167
 2018-Nov-15 13:26     20 33 39.024454 +27 58 38.05657
 2018-Nov-15 13:27     20 33 39.008085 +27 58 38.95176
 2018-Nov-15 13:28     20 33 38.991742 +27 58 39.84724
 2018-Nov-15 13:29     20 33 38.975425 +27 58 40.74301
 2018-Nov-15 13:30     20 33 38.959134 +27 58 41.63906
 2018-Nov-15 13:31     20 33 38.942867 +27 58 42.53541
 2018-Nov-15 13:32     20 33 38.926626 +27 58 43.43206
 2018-Nov-15 13:33     20 33 38.910410 +27 58 44.32899
 2018-Nov-15 13:34     20 33 38.894218 +27 58 45.22622
 2018-Nov-15 13:35     20 33 38.878051 +27 58 46.12374
 2018-Nov-15 13:36     20 33 38.861908 +27 58 47.02156
 2018-Nov-15 13:37     20 33 38.845790 +27 58 47.91967
 2018-Nov-15 13:38     20 33 38.829694 +27 58 48.81808
 2018-Nov-15 13:39     20 33 38.813623 +27 58 49.71679
 2018-Nov-15 13:40     20 33 38.797575 +27 58 50.61579
 2018-Nov-15 13:41     20 33 38.781550 +27 58 51.51509
 2018-Nov-15 13:42     20 33 38.765548 +27 58 52.41469
 2018-Nov-15 13:43     20 33 38.749569 +27 58 53.31458
 2018-Nov-15 13:44     20 33 38.733612 +27 58 54.21478
 2018-Nov-15 13:45     20 33 38.717677 +27 58 55.11528
 2018-Nov-15 13:46     20 33 38.701765 +27 58 56.01607
 2018-Nov-15 13:47     20 33 38.685874 +27 58 56.91717
 2018-Nov-15 13:48     20 33 38.670005 +27 58 57.81858
 2018-Nov-15 13:49     20 33 38.654158 +27 58 58.72028
 2018-Nov-15 13:50     20 33 38.638331 +27 58 59.62229
 2018-Nov-15 13:51     20 33 38.622526 +27 59 00.52460
 2018-Nov-15 13:52     20 33 38.606741 +27 59 01.42721
 2018-Nov-15 13:53     20 33 38.590977 +27 59 02.33013
 2018-Nov-15 13:54     20 33 38.575234 +27 59 03.23336
 2018-Nov-15 13:55     20 33 38.559510 +27 59 04.13689
 2018-Nov-15 13:56     20 33 38.543806 +27 59 05.04073
 2018-Nov-15 13:57     20 33 38.528122 +27 59 05.94487
 2018-Nov-15 13:58     20 33 38.512457 +27 59 06.84933
 2018-Nov-15 13:59     20 33 38.496812 +27 59 07.75409
 2018-Nov-15 14:00     20 33 38.481185 +27 59 08.65915
 2018-Nov-15 14:01     20 33 38.465577 +27 59 09.56453
 2018-Nov-15 14:02     20 33 38.449988 +27 59 10.47022
 2018-Nov-15 14:03     20 33 38.434417 +27 59 11.37622
 2018-Nov-15 14:04     20 33 38.418864 +27 59 12.28252
 2018-Nov-15 14:05     20 33 38.403329 +27 59 13.18914
 2018-Nov-15 14:06     20 33 38.387812 +27 59 14.09607
